{
  "type": "Feature",
  "properties": {},
  "geometry": {
    "type": "Polygon",
    "coordinates": [
      [
        [9.7234825, 58.8200668],
        [7.9319707, 57.8514578],
        [6.466934, 57.9163569],
        [4.8292028, 59.0508722],
        [4.500949, 60.6255682],
        [4.4926181, 61.3813684],
        [4.5402871, 62.1117156],
        [10.0508852, 64.6606661],
        [11.5612293, 65.8747516],
        [11.7489529, 67.6331092],
        [13.9979937, 68.8285516],
        [19.3967281, 70.4080651],
        [25.489484, 71.4062509],
        [29.2077038, 71.0437523],
        [32.3883978, 70.0691904],
        [29.5326533, 68.8624078],
        [28.605449, 69.0286789],
        [27.7664467, 70.001535],
        [25.0200589, 68.4685241],
        [22.1929157, 68.664417],
        [21.542756, 69.2037496],
        [19.8897683, 68.2307389],
        [18.5347887, 68.4391143],
        [17.8836109, 67.8114385],
        [17.3162899, 68.0201979],
        [16.1446281, 66.6469551],
        [14.0053668, 63.8547076],
        [12.554134, 63.753487],
        [12.9870837, 61.2116058],
        [12.2236868, 58.8364083],
        [9.7234825, 58.8200668]
      ]
    ]
  }
}
